Country,City,State,Postal_Code,Region
United States,Troy,New York,12180,East
United States,Atlanta,Georgia,30318,South
United States,Columbus,Indiana,47201,Central
United States,Salem,Oregon,97301,West
United States,Phoenix,Arizona,85023,West
United States,Roseville,California,95661,West
United States,Denver,Colorado,80219,West
United States,San Francisco,California,94110,West
United States,San Luis Obispo,California,93405,West
United States,Chicago,Illinois,60610,Central
United States,New York City,New York,10035,East
United States,Redondo Beach,California,90278,West
United States,Los Angeles,California,90036,West
United States,Columbia,Maryland,21044,East
United States,Lakewood,Ohio,44107,East
United States,Seattle,Washington,98103,West
United States,Seattle,Washington,98103,West
United States,Milwaukee,Wisconsin,53209,Central
United States,Philadelphia,Pennsylvania,19134,East
United States,Rochester,Minnesota,55901,Central
United States,Phoenix,Arizona,85023,West
United States,Colorado Springs,Colorado,80906,West
United States,Denver,Colorado,80219,West
United States,Los Angeles,California,90045,West
United States,Los Angeles,California,90036,West
United States,San Francisco,California,94122,West
United States,Anaheim,California,92804,West
United States,Dublin,Ohio,43017,East
United States,Redlands,California,92374,West
United States,Los Angeles,California,90004,West
United States,Milwaukee,Wisconsin,53209,Central
United States,Los Angeles,California,90008,West
United States,Gilbert,Arizona,85234,West
United States,Pasadena,California,91104,West
United States,Lowell,Massachusetts,1852,East
United States,Los Angeles,California,90032,West
United States,Parker,Colorado,80134,West
United States,Knoxville,Tennessee,37918,South
United States,Johnson City,Tennessee,37604,South
United States,San Francisco,California,94109,West
United States,San Francisco,California,94109,West
United States,El Paso,Texas,79907,Central
United States,San Francisco,California,94110,West
United States,New York City,New York,10024,East
United States,Brentwood,California,94513,West
United States,Los Angeles,California,90036,West
United States,Los Angeles,California,90032,West
United States,West Jordan,Utah,84084,West
United States,New Rochelle,New York,10801,East
United States,Seattle,Washington,98103,West
United States,Chico,California,95928,West
United States,San Jose,California,95123,West
United States,Philadelphia,Pennsylvania,19134,East
United States,Pasadena,California,91104,West
United States,Roseville,California,95661,West
United States,San Diego,California,92105,West
United States,Skokie,Illinois,60076,Central
United States,New York City,New York,10024,East
United States,Seattle,Washington,98103,West
United States,Jackson,Mississippi,39212,South
United States,San Francisco,California,94109,West
United States,San Francisco,California,94109,West
United States,Seattle,Washington,98115,West
United States,Pasadena,California,91104,West
United States,Redmond,Washington,98052,West
United States,Quincy,Massachusetts,2169,East
United States,Springfield,Oregon,97477,West
United States,San Francisco,California,94110,West
United States,Los Angeles,California,90008,West
United States,Oceanside,New York,11572,East
United States,Los Angeles,California,90036,West
United States,Fairfield,California,94533,West
United States,Jackson,Mississippi,39212,South
United States,Los Angeles,California,90045,West
United States,Salem,Oregon,97301,West
United States,El Paso,Texas,79907,Central
United States,Columbus,Georgia,31907,South
United States,Los Angeles,California,90032,West
United States,San Diego,California,92105,West
United States,Los Angeles,California,90036,West
United States,Seattle,Washington,98105,West
United States,Los Angeles,California,90004,West
United States,San Francisco,California,94110,West
United States,San Francisco,California,94110,West
United States,Houston,Texas,77095,Central
United States,Seattle,Washington,98115,West
United States,Los Angeles,California,90008,West
United States,Los Angeles,California,90004,West
United States,New York City,New York,10035,East
United States,Quincy,Illinois,62301,Central
United States,Camarillo,California,93010,West
United States,Troy,New York,12180,East
United States,Portland,Oregon,97206,West
United States,Redondo Beach,California,90278,West
United States,Bozeman,Montana,59715,West
United States,Skokie,Illinois,60076,Central
United States,New York City,New York,10035,East
United States,Salem,Oregon,97301,West
United States,Seattle,Washington,98103,West
United States,Oceanside,New York,11572,East
United States,Jackson,Michigan,49201,Central
United States,Chico,California,95928,West
United States,Roseville,California,95661,West
United States,Philadelphia,Pennsylvania,19134,East
United States,Chandler,Arizona,85224,West
United States,Dallas,Texas,75081,Central
United States,Greeley,Colorado,80634,West
United States,Jackson,Mississippi,39212,South
United States,Plantation,Florida,33317,South
United States,Pleasant Grove,Utah,84062,West
United States,Quincy,Illinois,62301,Central
United States,New York City,New York,10011,East
United States,Jacksonville,Florida,32216,South
United States,Los Angeles,California,90036,West
United States,Los Angeles,California,90032,West
United States,Rochester,New York,14609,East
United States,Seattle,Washington,98103,West
United States,Deltona,Florida,32725,South
United States,Seattle,Washington,98103,West
United States,Brentwood,California,94513,West
United States,San Diego,California,92105,West
United States,Plantation,Florida,33317,South
United States,Fairfield,California,94533,West
United States,Seattle,Washington,98103,West
United States,Los Angeles,California,90045,West
United States,Redlands,California,92374,West
United States,San Francisco,California,94110,West
United States,Edmonds,Washington,98026,West
United States,Los Angeles,California,90049,West
United States,Columbus,Georgia,31907,South
United States,Los Angeles,California,90008,West
United States,New York City,New York,10024,East
United States,Santa Ana,California,92704,West
United States,Los Angeles,California,90049,West
United States,Los Angeles,California,90004,West
United States,Springfield,Ohio,45503,East
United States,Jackson,Michigan,49201,Central
United States,Los Angeles,California,90008,West
United States,San Diego,California,92105,West
United States,Vallejo,California,94591,West
United States,Fairfield,California,94533,West
United States,Los Angeles,California,90032,West
United States,Roseville,California,95661,West
United States,Seattle,Washington,98115,West
United States,Plantation,Florida,33317,South
United States,Troy,Ohio,45373,East
United States,Johnson City,Tennessee,37604,South
United States,Seattle,Washington,98105,West
United States,Apple Valley,California,92307,West
United States,Redlands,California,92374,West
United States,Salem,Oregon,97301,West
United States,Santa Clara,California,95051,West
United States,El Paso,Texas,79907,Central
United States,Oceanside,California,92054,West
United States,Louisville,Kentucky,40214,South
United States,San Francisco,California,94109,West
United States,New York City,New York,10009,East
United States,San Francisco,California,94122,West
United States,San Francisco,California,94110,West
United States,Greeley,Colorado,80634,West
United States,Brentwood,California,94513,West
United States,Johnson City,Tennessee,37604,South
United States,Riverside,California,92503,West
United States,Chico,California,95928,West
United States,Los Angeles,California,90008,West
United States,Columbus,Ohio,43229,East
United States,Los Angeles,California,90036,West
United States,Provo,Utah,84604,West
United States,Pleasant Grove,Utah,84062,West
United States,Oakland,California,94601,West
United States,Seattle,Washington,98105,West
United States,San Francisco,California,94110,West
United States,New York City,New York,10009,East
United States,Chicago,Illinois,60610,Central
United States,Seattle,Washington,98103,West
United States,Seattle,Washington,98105,West
United States,Houston,Texas,77041,Central
United States,Los Angeles,California,90049,West
United States,San Francisco,California,94122,West
United States,Lowell,Massachusetts,1852,East
United States,Brentwood,California,94513,West
United States,Port Saint Lucie,Florida,34952,South
United States,Los Angeles,California,90036,West
United States,Los Angeles,California,90036,West
United States,Salem,Oregon,97301,West
United States,Seattle,Washington,98103,West
United States,Saint Louis,Missouri,63116,Central
United States,San Francisco,California,94122,West
United States,Los Angeles,California,90049,West
United States,Wilmington,Delaware,19805,East
United States,Chicago,Illinois,60610,Central
United States,Fairfield,California,94533,West
United States,Fairfield,California,94533,West
United States,New York City,New York,10011,East
United States,Los Angeles,California,90045,West
United States,Los Angeles,California,90045,West
United States,Tulsa,Oklahoma,74133,Central
United States,Brentwood,California,94513,West
United States,Dublin,Ohio,43017,East
United States,Moreno Valley,California,92553,West
United States,Los Angeles,California,90008,West
United States,Fairfield,California,94533,West
United States,Medina,Ohio,44256,East
United States,Los Angeles,California,90045,West
United States,Quincy,Massachusetts,2169,East
United States,Bozeman,Montana,59715,West
United States,Phoenix,Arizona,85023,West
United States,Los Angeles,California,90036,West
United States,San Diego,California,92024,West
United States,Philadelphia,Pennsylvania,19134,East
United States,San Francisco,California,94109,West
United States,Los Angeles,California,90004,West
United States,Jackson,Mississippi,39212,South
United States,Newark,Delaware,19711,East
United States,Chicago,Illinois,60610,Central
United States,Los Angeles,California,90032,West
United States,Salem,Virginia,24153,South
United States,Charlotte,North Carolina,28205,South
United States,Oceanside,California,92054,West
United States,Los Angeles,California,90004,West
United States,Pasadena,California,91104,West
United States,Costa Mesa,California,92627,West
United States,Seattle,Washington,98115,West
United States,Salem,Oregon,97301,West
United States,Costa Mesa,California,92627,West
United States,San Francisco,California,94110,West
United States,Fairfield,California,94533,West
United States,Phoenix,Arizona,85023,West
United States,Springfield,Virginia,22153,South
United States,San Francisco,California,94110,West
United States,Concord,New Hampshire,3301,East
United States,Tulsa,Oklahoma,74133,Central
United States,Troy,New York,12180,East
United States,Apple Valley,California,92307,West
United States,San Antonio,Texas,78207,Central
United States,Anaheim,California,92804,West
United States,Anaheim,California,92804,West
United States,Seattle,Washington,98103,West
United States,San Francisco,California,94110,West
United States,Columbia,Maryland,21044,East
United States,Bakersfield,California,93309,West
United States,Lincoln Park,Michigan,48146,Central
United States,Columbus,Georgia,31907,South
United States,Laguna Niguel,California,92677,West
United States,Roseville,California,95661,West
United States,Omaha,Nebraska,68104,Central
United States,San Diego,California,92105,West
United States,Temecula,California,92592,West
United States,Denver,Colorado,80219,West
United States,Rochester,Minnesota,55901,Central
United States,Los Angeles,California,90032,West
United States,Santa Clara,California,95051,West
United States,Inglewood,California,90301,West
United States,San Francisco,California,94110,West
United States,Los Angeles,California,90049,West
United States,Los Angeles,California,90032,West
United States,Jackson,Tennessee,38301,South
United States,Colorado Springs,Colorado,80906,West
United States,New York City,New York,10035,East
United States,San Francisco,California,94122,West
United States,Haltom City,Texas,76117,Central
United States,Haltom City,Texas,76117,Central
United States,Parker,Colorado,80134,West
United States,Temecula,California,92592,West
United States,Pueblo,Colorado,81001,West
United States,Fort Worth,Texas,76106,Central
United States,Redlands,California,92374,West
United States,Nashville,Tennessee,37211,South
United States,Troy,Ohio,45373,East
United States,Seattle,Washington,98103,West
United States,San Antonio,Texas,78207,Central
United States,Roseville,California,95661,West
United States,Los Angeles,California,90008,West
United States,Tulsa,Oklahoma,74133,Central
United States,San Francisco,California,94122,West
United States,Los Angeles,California,90045,West
United States,Los Angeles,California,90036,West
United States,San Francisco,California,94122,West
United States,San Diego,California,92024,West
United States,San Francisco,California,94122,West
United States,Johnson City,Tennessee,37604,South
United States,Los Angeles,California,90008,West
United States,San Francisco,California,94109,West
United States,Pasadena,California,91104,West
United States,New York City,New York,10009,East
United States,Jackson,Mississippi,39212,South
United States,Jackson,Tennessee,38301,South
United States,New York City,New York,10035,East
United States,Round Rock,Texas,78664,Central
United States,Dublin,Ohio,43017,East
United States,Seattle,Washington,98103,West
United States,New Rochelle,New York,10801,East
United States,Anaheim,California,92804,West
United States,Rome,New York,13440,East
United States,New York City,New York,10035,East
United States,Costa Mesa,California,92627,West
United States,San Francisco,California,94110,West
United States,San Francisco,California,94122,West
United States,Quincy,Illinois,62301,Central
United States,San Francisco,California,94122,West
United States,Seattle,Washington,98103,West
United States,Albuquerque,New Mexico,87105,West
United States,Springfield,Ohio,45503,East
United States,San Francisco,California,94109,West
United States,Skokie,Illinois,60076,Central
United States,Troy,New York,12180,East
United States,Seattle,Washington,98115,West
United States,Parker,Colorado,80134,West
United States,Oakland,California,94601,West
United States,Columbia,Maryland,21044,East
United States,Columbia,Maryland,21044,East
United States,Milwaukee,Wisconsin,53209,Central
United States,San Diego,California,92105,West
United States,San Antonio,Texas,78207,Central
United States,Seattle,Washington,98115,West
United States,Milwaukee,Wisconsin,53209,Central
United States,Los Angeles,California,90004,West
United States,San Francisco,California,94110,West
United States,Redwood City,California,94061,West
United States,Lakewood,New Jersey,8701,East
United States,La Quinta,California,92253,West
United States,Los Angeles,California,90004,West
United States,Los Angeles,California,90004,West
United States,Los Angeles,California,90049,West
United States,Apple Valley,California,92307,West
United States,Seattle,Washington,98103,West
United States,Dallas,Texas,75081,Central
United States,Quincy,Illinois,62301,Central
United States,Albuquerque,New Mexico,87105,West
United States,Salem,Oregon,97301,West
United States,San Diego,California,92105,West
United States,Charlotte,North Carolina,28205,South
United States,Seattle,Washington,98105,West
United States,Encinitas,California,92024,West
United States,Bakersfield,California,93309,West
United States,Los Angeles,California,90049,West
United States,Philadelphia,Pennsylvania,19134,East
United States,Quincy,Massachusetts,2169,East
United States,San Francisco,California,94122,West
United States,Columbus,Ohio,43229,East
United States,San Francisco,California,94110,West
United States,Los Angeles,California,90008,West
United States,Phoenix,Arizona,85023,West
United States,Troy,New York,12180,East
United States,Phoenix,Arizona,85023,West
United States,San Francisco,California,94109,West
United States,San Francisco,California,94109,West
United States,Decatur,Alabama,35601,South
United States,New York City,New York,10035,East
United States,Pueblo,Colorado,81001,West
United States,Seattle,Washington,98115,West
United States,Columbia,Maryland,21044,East
United States,Dublin,Ohio,43017,East
United States,Austin,Texas,78745,Central
United States,Los Angeles,California,90004,West
United States,Redlands,California,92374,West
United States,Los Angeles,California,90045,West
United States,Houston,Texas,77041,Central
United States,Portland,Oregon,97206,West
United States,Houston,Texas,77095,Central
United States,Phoenix,Arizona,85023,West
United States,Salem,Oregon,97301,West
United States,Mesa,Arizona,85204,West
United States,Seattle,Washington,98103,West
United States,Newark,Delaware,19711,East
United States,San Francisco,California,94122,West
United States,Bakersfield,California,93309,West
United States,Los Angeles,California,90036,West
United States,Laguna Niguel,California,92677,West
United States,Everett,Massachusetts,2149,East
United States,Philadelphia,Pennsylvania,19140,East
United States,New York City,New York,10009,East
United States,Los Angeles,California,90049,West
United States,Chicago,Illinois,60610,Central
United States,Parker,Colorado,80134,West
United States,Seattle,Washington,98115,West
United States,Escondido,California,92025,West
United States,Seattle,Washington,98103,West
United States,Jackson,Tennessee,38301,South
United States,New York City,New York,10035,East
United States,Seattle,Washington,98105,West
United States,Dallas,Texas,75081,Central
United States,Pasadena,California,91104,West
United States,Charlotte,North Carolina,28205,South
United States,Pasadena,Texas,77506,Central
United States,San Francisco,California,94109,West
United States,Moreno Valley,California,92553,West
United States,Pasadena,California,91104,West
United States,Seattle,Washington,98103,West
United States,Houston,Texas,77041,Central
United States,Tulsa,Oklahoma,74133,Central
United States,Chicago,Illinois,60610,Central
United States,San Diego,California,92024,West
United States,Springfield,Ohio,45503,East
United States,Jackson,Tennessee,38301,South
United States,Chicago,Illinois,60610,Central
United States,San Antonio,Texas,78207,Central
United States,San Francisco,California,94122,West
United States,West Jordan,Utah,84084,West
United States,Quincy,Massachusetts,2169,East
United States,Seattle,Washington,98115,West
United States,Chicago,Illinois,60610,Central
United States,Columbus,Ohio,43229,East
United States,Chico,California,95928,West
United States,Brentwood,California,94513,West
United States,Austin,Texas,78745,Central
United States,San Francisco,California,94110,West
United States,Houston,Texas,77041,Central
United States,Roseville,California,95661,West
United States,San Diego,California,92024,West
United States,Edmonds,Washington,98026,West
United States,Seattle,Washington,98115,West
United States,Anaheim,California,92804,West
United States,San Francisco,California,94109,West
United States,Los Angeles,California,90036,West
United States,New York City,New York,10024,East
United States,Lakewood,New Jersey,8701,East
United States,Phoenix,Arizona,85023,West
United States,Roseville,California,95661,West
United States,New York City,New York,10035,East
United States,Austin,Texas,78745,Central
United States,Redondo Beach,California,90278,West
United States,New York City,New York,10011,East
United States,Spokane,Washington,99207,West
United States,New York City,New York,10035,East
United States,San Francisco,California,94122,West
United States,West Jordan,Utah,84084,West
United States,Rome,New York,13440,East
United States,Santa Clara,California,95051,West
United States,Los Angeles,California,90008,West
United States,Dublin,Ohio,43017,East
United States,Columbus,Ohio,43229,East
United States,San Diego,California,92105,West
United States,Seattle,Washington,98115,West
United States,New York City,New York,10011,East
United States,San Francisco,California,94110,West
United States,Seattle,Washington,98115,West
United States,Philadelphia,Pennsylvania,19120,East
United States,Chicago,Illinois,60610,Central
United States,Concord,North Carolina,28027,South
United States,San Diego,California,92024,West
United States,Lakewood,New Jersey,8701,East
United States,Sterling Heights,Michigan,48310,Central
United States,Anaheim,California,92804,West
United States,Inglewood,California,90301,West
United States,Los Angeles,California,90036,West
United States,Los Angeles,California,90049,West
United States,San Francisco,California,94122,West
United States,Nashville,Tennessee,37211,South
United States,Los Angeles,California,90032,West
United States,Encinitas,California,92024,West
United States,Pasadena,California,91104,West
United States,Quincy,Massachusetts,2169,East
United States,Columbus,Ohio,43229,East
United States,Seattle,Washington,98103,West
United States,Brentwood,California,94513,West
United States,West Jordan,Utah,84084,West
United States,Los Angeles,California,90036,West
United States,Los Angeles,California,90008,West
United States,Los Angeles,California,90032,West
United States,Hesperia,California,92345,West
United States,Los Angeles,California,90036,West
United States,York,Pennsylvania,17403,East
United States,Rockville,Maryland,20852,East
United States,Pueblo,Colorado,81001,West
United States,Newark,Delaware,19711,East
United States,Philadelphia,Pennsylvania,19134,East
United States,Milwaukee,Wisconsin,53209,Central
United States,Newark,Delaware,19711,East
United States,Seattle,Washington,98103,West
United States,Troy,Ohio,45373,East
United States,Nashville,Tennessee,37211,South
United States,Houston,Texas,77041,Central
United States,Virginia Beach,Virginia,23464,South
United States,Oceanside,California,92054,West
United States,Bakersfield,California,93309,West
United States,Phoenix,Arizona,85023,West
United States,Bakersfield,California,93309,West
United States,New York City,New York,10035,East
United States,San Francisco,California,94122,West
United States,Los Angeles,California,90008,West
United States,Oakland,California,94601,West
United States,Jackson,Michigan,49201,Central
United States,Salem,Oregon,97301,West
United States,Los Angeles,California,90049,West
United States,Costa Mesa,California,92627,West
United States,New York City,New York,10035,East
United States,Detroit,Michigan,48234,Central
United States,Medina,Ohio,44256,East
United States,San Francisco,California,94122,West
United States,Bartlett,Tennessee,38134,South
United States,Seattle,Washington,98105,West
United States,Anaheim,California,92804,West
United States,San Jose,California,95123,West
United States,Columbus,Georgia,31907,South
United States,Seattle,Washington,98103,West
United States,Phoenix,Arizona,85023,West
United States,Medina,Ohio,44256,East
United States,San Jose,California,95123,West
United States,Seattle,Washington,98105,West
United States,Seattle,Washington,98103,West
United States,San Diego,California,92105,West
United States,Lowell,Massachusetts,1852,East
United States,Newark,Delaware,19711,East
United States,Springfield,Oregon,97477,West
United States,Milwaukee,Wisconsin,53209,Central
United States,Oakland,California,94601,West
United States,Aurora,Colorado,80013,West
United States,Round Rock,Texas,78664,Central
United States,Plantation,Florida,33317,South
United States,Seattle,Washington,98103,West
United States,Oceanside,California,92054,West
United States,Columbus,Georgia,31907,South
United States,Anaheim,California,92804,West
United States,Seattle,Washington,98103,West
United States,Bloomington,Indiana,47401,Central
United States,Seattle,Washington,98103,West
United States,Los Angeles,California,90004,West
United States,Dallas,Texas,75081,Central
United States,Inglewood,California,90301,West
United States,New York City,New York,10011,East
United States,Jackson,Michigan,49201,Central
United States,Los Angeles,California,90008,West
United States,Los Angeles,California,90008,West
United States,Decatur,Alabama,35601,South
United States,Rochester,New York,14609,East
United States,Los Angeles,California,90045,West
United States,Salem,Oregon,97301,West
United States,Providence,Rhode Island,2908,East
United States,Johnson City,Tennessee,37604,South
United States,Quincy,Illinois,62301,Central
United States,Spokane,Washington,99207,West
United States,Jackson,Michigan,49201,Central
United States,New York City,New York,10024,East
United States,Dallas,Texas,75081,Central
United States,Phoenix,Arizona,85023,West
United States,San Francisco,California,94122,West
United States,Seattle,Washington,98115,West
United States,Columbia,Maryland,21044,East
United States,Los Angeles,California,90036,West
United States,San Francisco,California,94109,West
United States,New Rochelle,New York,10801,East
United States,Los Angeles,California,90036,West
United States,Seattle,Washington,98103,West
United States,New York City,New York,10035,East
United States,Oakland,California,94601,West
United States,Salem,Oregon,97301,West
United States,Los Angeles,California,90032,West
United States,Los Angeles,California,90004,West
United States,Houston,Texas,77041,Central
United States,Seattle,Washington,98103,West
United States,Los Angeles,California,90049,West
United States,Nashville,Tennessee,37211,South
United States,Santa Ana,California,92704,West
United States,Plantation,Florida,33317,South
United States,Springfield,Oregon,97477,West
United States,San Francisco,California,94122,West
United States,Encinitas,California,92024,West
United States,Salem,Virginia,24153,South
United States,San Francisco,California,94109,West
United States,San Francisco,California,94110,West
United States,Dallas,Texas,75081,Central
United States,Louisville,Kentucky,40214,South
United States,Anaheim,California,92804,West
United States,San Diego,California,92105,West
United States,Brentwood,California,94513,West
United States,Seattle,Washington,98103,West
United States,San Jose,California,95123,West
United States,Pharr,Texas,78577,Central
United States,San Francisco,California,94110,West
United States,Oakland,California,94601,West
United States,Nashville,Tennessee,37211,South
United States,Los Angeles,California,90049,West
United States,Pleasant Grove,Utah,84062,West
United States,New York City,New York,10009,East
United States,Los Angeles,California,90004,West
United States,Seattle,Washington,98103,West
United States,New York City,New York,10009,East
United States,Houston,Texas,77041,Central
United States,Troy,New York,12180,East
United States,New York City,New York,10011,East
United States,Jackson,Michigan,49201,Central
United States,Seattle,Washington,98115,West
United States,New York City,New York,10035,East
United States,Lincoln Park,Michigan,48146,Central
United States,Hesperia,California,92345,West
United States,Haltom City,Texas,76117,Central
United States,San Francisco,California,94110,West
United States,Columbus,Ohio,43229,East
United States,Louisville,Kentucky,40214,South
United States,Los Angeles,California,90032,West
United States,Los Angeles,California,90036,West
United States,Austin,Texas,78745,Central
United States,Los Angeles,California,90008,West
United States,Los Angeles,California,90004,West
United States,Pasadena,California,91104,West
United States,Los Angeles,California,90008,West
United States,Salt Lake City,Utah,84106,West
United States,Philadelphia,Pennsylvania,19134,East
United States,Philadelphia,Pennsylvania,19134,East
United States,Pasadena,Texas,77506,Central
United States,San Francisco,California,94109,West
United States,Portland,Oregon,97206,West
United States,Chicago,Illinois,60623,Central
United States,San Diego,California,92105,West
United States,Chico,California,95928,West
United States,Seattle,Washington,98115,West
United States,Rome,New York,13440,East
United States,Virginia Beach,Virginia,23464,South
United States,Lowell,Massachusetts,1852,East
United States,Inglewood,California,90301,West
United States,New York City,New York,10009,East
United States,San Francisco,California,94122,West
United States,Gresham,Oregon,97030,West
United States,Phoenix,Arizona,85023,West
United States,New York City,New York,10035,East
United States,Columbus,Georgia,31907,South
United States,Los Angeles,California,90004,West
United States,Nashville,Tennessee,37211,South
United States,Costa Mesa,California,92627,West
United States,Dallas,Texas,75217,Central
United States,Hampton,Virginia,23666,South
United States,San Francisco,California,94109,West
United States,Philadelphia,Pennsylvania,19120,East
United States,Phoenix,Arizona,85023,West
United States,Amarillo,Texas,79109,Central
United States,Temecula,California,92592,West
United States,Quincy,Massachusetts,2169,East
United States,Columbus,Ohio,43229,East
United States,Inglewood,California,90301,West
United States,Brentwood,California,94513,West
United States,Los Angeles,California,90008,West
United States,Pleasant Grove,Utah,84062,West
United States,Newark,Delaware,19711,East
United States,Columbus,Georgia,31907,South
United States,Los Angeles,California,90045,West
United States,Los Angeles,California,90008,West
United States,Costa Mesa,California,92627,West
United States,Oceanside,New York,11572,East
United States,Los Angeles,California,90049,West
United States,New York City,New York,10035,East
United States,Concord,New Hampshire,3301,East
United States,Fort Worth,Texas,76106,Central
United States,Los Angeles,California,90045,West
United States,Los Angeles,California,90045,West
United States,Los Angeles,California,90008,West
United States,Los Angeles,California,90045,West
United States,Lake Elsinore,California,92530,West
United States,Jacksonville,Florida,32216,South
United States,San Jose,California,95123,West
United States,Aurora,Colorado,80013,West
United States,Redlands,California,92374,West
United States,Charlotte,North Carolina,28205,South
United States,Boise,Idaho,83704,West
United States,Concord,North Carolina,28027,South
United States,San Francisco,California,94110,West
United States,Aurora,Colorado,80013,West
United States,Columbus,Georgia,31907,South
United States,Detroit,Michigan,48234,Central
United States,Lakewood,California,90712,West
United States,Redlands,California,92374,West
United States,Concord,New Hampshire,3301,East
United States,York,Pennsylvania,17403,East
United States,Troy,New York,12180,East
United States,San Diego,California,92105,West
United States,Columbia,Maryland,21044,East
United States,Los Angeles,California,90008,West
United States,Chicago,Illinois,60610,Central
United States,Los Angeles,California,90004,West
United States,San Francisco,California,94109,West
United States,Inglewood,California,90301,West
United States,Los Angeles,California,90045,West
United States,Louisville,Kentucky,40214,South
United States,Philadelphia,Pennsylvania,19134,East
United States,Tucson,Arizona,85705,West
United States,Los Angeles,California,90004,West
United States,Newark,Delaware,19711,East
United States,New York City,New York,10024,East
United States,Los Angeles,California,90032,West
United States,Thornton,Colorado,80229,West
United States,Wilmington,Delaware,19805,East
United States,Pleasant Grove,Utah,84062,West
United States,Denver,Colorado,80219,West
United States,Dallas,Texas,75081,Central
United States,Los Angeles,California,90008,West
United States,Denver,Colorado,80219,West
United States,Los Angeles,California,90004,West
United States,Oakland,California,94601,West
United States,Anaheim,California,92804,West
United States,Brentwood,California,94513,West
United States,Seattle,Washington,98115,West
United States,New York City,New York,10009,East
United States,Redlands,California,92374,West
United States,Springfield,Virginia,22153,South
United States,Los Angeles,California,90004,West
United States,San Diego,California,92105,West
United States,Newark,Delaware,19711,East
United States,Los Angeles,California,90004,West
United States,Farmington,New Mexico,87401,West
United States,Portland,Oregon,97206,West
United States,Los Angeles,California,90049,West
United States,York,Pennsylvania,17403,East
United States,Phoenix,Arizona,85023,West
United States,Temecula,California,92592,West
United States,Mesa,Arizona,85204,West
United States,San Antonio,Texas,78207,Central
United States,Seattle,Washington,98103,West
United States,Fairfield,California,94533,West
United States,San Francisco,California,94110,West
United States,Lafayette,Indiana,47905,Central
United States,Chico,California,95928,West
United States,Pasadena,California,91104,West
United States,Denver,Colorado,80219,West
United States,San Francisco,California,94110,West
United States,Los Angeles,California,90045,West
United States,Deltona,Florida,32725,South
United States,Los Angeles,California,90004,West
United States,Providence,Rhode Island,2908,East
United States,Oakland,California,94601,West
United States,El Paso,Texas,79907,Central
United States,Los Angeles,California,90036,West
United States,Seattle,Washington,98105,West
United States,Boise,Idaho,83704,West
United States,Oakland,California,94601,West
United States,Oakland,California,94601,West
United States,Los Angeles,California,90036,West
United States,Los Angeles,California,90045,West
United States,Inglewood,California,90301,West
United States,Inglewood,California,90301,West
United States,New York City,New York,10011,East
United States,Los Angeles,California,90032,West
United States,San Francisco,California,94122,West
United States,Troy,Ohio,45373,East
United States,Spokane,Washington,99207,West
United States,New York City,New York,10009,East
United States,Lowell,Massachusetts,1852,East
United States,Gilbert,Arizona,85234,West
United States,Denver,Colorado,80219,West
United States,Plantation,Florida,33317,South
United States,Los Angeles,California,90008,West
United States,Pasadena,California,91104,West
United States,Charlotte,North Carolina,28205,South
United States,Salem,Oregon,97301,West
United States,Seattle,Washington,98115,West
United States,Los Angeles,California,90036,West
United States,Virginia Beach,Virginia,23464,South
United States,Brentwood,California,94513,West
United States,Lowell,Massachusetts,1852,East
United States,Medina,Ohio,44256,East
United States,Charlotte,North Carolina,28205,South
United States,New York City,New York,10011,East
United States,Austin,Texas,78745,Central
United States,Parker,Colorado,80134,West
United States,Vallejo,California,94591,West
United States,Anaheim,California,92804,West
United States,Pleasant Grove,Utah,84062,West
United States,Fairfield,California,94533,West
United States,Los Angeles,California,90036,West
United States,Los Angeles,California,90036,West
United States,Los Angeles,California,90032,West
United States,Denver,Colorado,80219,West
United States,Oceanside,New York,11572,East
United States,Seattle,Washington,98105,West
United States,Dublin,Ohio,43017,East
United States,Springfield,Virginia,22153,South
United States,Troy,Ohio,45373,East
United States,New York City,New York,10035,East
United States,Los Angeles,California,90004,West
United States,New York City,New York,10035,East
United States,Cleveland,Ohio,44105,East
United States,Chicago,Illinois,60623,Central
United States,Apple Valley,California,92307,West
United States,Los Angeles,California,90036,West
United States,Los Angeles,California,90049,West
United States,Lowell,Massachusetts,1852,East
United States,Columbus,Georgia,31907,South
United States,Seattle,Washington,98115,West
United States,San Francisco,California,94110,West
United States,Redlands,California,92374,West
United States,Jackson,Tennessee,38301,South
United States,San Francisco,California,94122,West
United States,Seattle,Washington,98103,West
United States,New York City,New York,10009,East
United States,Lafayette,Louisiana,70506,South
United States,Pueblo,Colorado,81001,West
United States,Phoenix,Arizona,85023,West
United States,San Francisco,California,94122,West
United States,New York City,New York,10024,East
United States,Brentwood,California,94513,West
United States,New York City,New York,10035,East
United States,Nashville,Tennessee,37211,South
United States,Phoenix,Arizona,85023,West
United States,Medina,Ohio,44256,East
United States,Lorain,Ohio,44052,East
United States,Los Angeles,California,90049,West
United States,New York City,New York,10035,East
United States,Philadelphia,Pennsylvania,19134,East
United States,Amarillo,Texas,79109,Central
United States,San Antonio,Texas,78207,Central
United States,Seattle,Washington,98115,West
